GLOBALSTAR M045         
1 25676U 99019A   24332.92068017 -.00000035  00000+0  51432-3 0  9997
2 25676  51.9937 158.9180 0001252 108.4923  35.5600 12.27052370168688
GLOBALSTAR M019         
1 25677U 99019B   24332.12723799 -.00000160  00000+0 -72620-3 0  9997
2 25677  51.9883 277.3261 0000858 314.6044 164.3239 12.13866176160606
GLOBALSTAR M044         
1 25678U 99019C   24332.53945378 -.00000110  00000+0 -36668-3 0  9999
2 25678  51.9951 202.3155 0007207  21.7314 359.2629 11.90244421147312
GLOBALSTAR M042         
1 25679U 99019D   24332.77304194 -.00000053  00000+0  36958-3 0  9998
2 25679  52.0014 259.5476 0002084 245.8668 149.8201 12.22073839160632
GLOBALSTAR M025         
1 25770U 99031A   24332.79053663 -.00000057  00000+0  33190-3 0  9997
2 25770  51.9820 265.8212 0001236 134.7124 263.0175 11.22557049459095
GLOBALSTAR M049         
1 25771U 99031B   24332.83372130 -.00000137  00000+0 -24875-2 0  9995
2 25771  51.9885 290.3648 0003889  37.6128 322.4940 11.12114072 95027
GLOBALSTAR M047         
1 25772U 99031C   24332.63104805 -.00000060  00000+0  26593-3 0  9990
2 25772  51.9850 307.0508 0016191 278.3059  81.5911 11.31925024448287
GLOBALSTAR M052         
1 25773U 99031D   24332.51582868 -.00000104  00000+0 -12757-2 0  9993
2 25773  51.9898  42.5957 0002850 187.1565 185.7817 11.15055567456015
